FOSSASAT-2E20 (TAT-O)   
1 63003U 25009DN  26068.70855016  .00016337  00000+0  61863-3 0  9998
2 63003  97.3231 146.2859 0002189 347.5575  12.5610 15.26991080121314
STARLINK-33677          
1 63410U 25065M   26068.44750886  .00022185  00000+0  81328-3 0  9998
2 63410  43.0006 108.3747 0001974 254.2981 105.7653 15.27579841 52802
